{"type": "FeatureCollection", "features": [ {"type": "Feature", "properties": {"norad_id": 43010, "name": "FENGYUN 3D", "group": "weather", "lat": -50.18723963223606, "lon": 120.71620502732219, "alt_km": 832.8314255858686, "timestamp": "2025-12-11T08:58:26.757074+00:00", "meta": {"OBJECT_NAME": "FENGYUN 3D", "OBJECT_ID": "2017-072A", "EPOCH": "2025-12-11T04:30:23.518080", "MEAN_MOTION": 14.1968333, "ECCENTRICITY": 8.6e-05, "INCLINATION": 98.9894, "RA_OF_ASC_NODE": 311.4746, "ARG_OF_PERICENTER": 187.421, "MEAN_ANOMALY": 172.6953, "EPHEMERIS_TYPE": 0, "CLASSIFICATION_TYPE": "U", "NORAD_CAT_ID": 43010, "ELEMENT_SET_NO": 999, "REV_AT_EPOCH": 41831, "BSTAR": 0.00019586, "MEAN_MOTION_DOT": 3.68e-06, "MEAN_MOTION_DDOT": 0}, "tle": {"line1": "1 43010U 17072A   25345.18777220  .00000368  00000+0  19586-3 0  9996", "line2": "2 43010  98.9894 311.4746 0000860 187.4210 172.6953 14.19683330418318"}}, "geometry": {"type": "Point", "coordinates": [120.71620502732219, -50.18723963223606]}}, {"type": "Feature", "properties": {"norad_id": 43013, "name": "NOAA 20 (JPSS-1)", "group": "weather", "lat": 23.684669400064042, "lon": -82.19254718249, "alt_km": 825.713031320317, "timestamp": "2025-12-11T08:58:26.757086+00:00", "meta": {"OBJECT_NAME": "NOAA 20 (JPSS-1)", "OBJECT_ID": "2017-073A", "EPOCH": "2025-12-11T03:47:11.448096", "MEAN_MOTION": 14.19525028, "ECCENTRICITY": 0.0002152, "INCLINATION": 98.7597, "RA_OF_ASC_NODE": 281.4718, "ARG_OF_PERICENTER": 89.4897, "MEAN_ANOMALY": 270.6526, "EPHEMERIS_TYPE": 0, "CLASSIFICATION_TYPE": "U", "NORAD_CAT_ID": 43013, "ELEMENT_SET_NO": 999, "REV_AT_EPOCH": 41779, "BSTAR": 0.00010104, "MEAN_MOTION_DOT": 1.69e-06, "MEAN_MOTION_DDOT": 0}, "tle": {"line1": "1 43013U 17073A   25345.15777139  .00000169  00000+0  10104-3 0  9992", "line2": "2 43013  98.7597 281.4718 0002152  89.4897 270.6526 14.19525028417797"}}, "geometry": {"type": "Point", "coordinates": [-82.19254718249, 23.684669400064042]}}, {"type": "Feature", "properties": {"norad_id": 43226, "name": "GOES 17", "group": "weather", "lat": 0.2808189481377108, "lon": 125.42938747125689, "alt_km": 35798.45774860949, "timestamp": "2025-12-11T08:58:26.757118+00:00", "meta": {"OBJECT_NAME": "GOES 17", "OBJECT_ID": "2018-022A", "EPOCH": "2025-12-11T02:48:46.255392", "MEAN_MOTION": 1.0027164, "ECCENTRICITY": 0.0003337, "INCLINATION": 0.456, "RA_OF_ASC_NODE": 89.1253, "ARG_OF_PERICENTER": 187.5221, "MEAN_ANOMALY": 116.1333, "EPHEMERIS_TYPE": 0, "CLASSIFICATION_TYPE": "U", "NORAD_CAT_ID": 43226, "ELEMENT_SET_NO": 999, "REV_AT_EPOCH": 2853, "BSTAR": 0, "MEAN_MOTION_DOT": -1.77e-06, "MEAN_MOTION_DDOT": 0}, "tle": {"line1": "1 43226U 18022A   25345.11720203 -.00000177  00000+0  00000+0 0  9999", "line2": "2 43226   0.4560  89.1253 0003337 187.5221 116.1333  1.00271640 28531"}}, "geometry": {"type": "Point", "coordinates": [125.42938747125689, 0.2808189481377108]}}, {"type": "Feature", "properties": {"norad_id": 43491, "name": "FENGYUN 2H", "group": "weather", "lat": -1.4011741451924165, "lon": -65.6945373629445, "alt_km": 35778.113166139956, "timestamp": "2025-12-11T08:58:26.757136+00:00", "meta": {"OBJECT_NAME": "FENGYUN 2H", "OBJECT_ID": "2018-050A", "EPOCH": "2025-12-11T01:54:12.536928", "MEAN_MOTION": 1.00271109, "ECCENTRICITY": 0.0002916, "INCLINATION": 2.5468, "RA_OF_ASC_NODE": 81.3429, "ARG_OF_PERICENTER": 165.4782, "MEAN_ANOMALY": 301.137, "EPHEMERIS_TYPE": 0, "CLASSIFICATION_TYPE": "U", "NORAD_CAT_ID": 43491, "ELEMENT_SET_NO": 999, "REV_AT_EPOCH": 2755, "BSTAR": 0, "MEAN_MOTION_DOT": -1.24e-06, "MEAN_MOTION_DDOT": 0}, "tle": {"line1": "1 43491U 18050A   25345.07931177 -.00000124  00000+0  00000+0 0  9995", "line2": "2 43491   2.5468  81.3429 0002916 165.4782 301.1370  1.00271109 27551"}}, "geometry": {"type": "Point", "coordinates": [-65.6945373629445, -1.4011741451924165]}}, {"type": "Feature", "properties": {"norad_id": 43689, "name": "METOP-C", "group": "weather", "lat": 24.07845081016194, "lon": -132.91505262033937, "alt_km": 820.090976046461, "timestamp": "2025-12-11T08:58:26.757148+00:00", "meta": {"OBJECT_NAME": "METOP-C", "OBJECT_ID": "2018-087A", "EPOCH": "2025-12-11T03:10:37.106688", "MEAN_MOTION": 14.21483137, "ECCENTRICITY": 0.0001295, "INCLINATION": 98.6931, "RA_OF_ASC_NODE": 42.9268, "ARG_OF_PERICENTER": 41.2493, "MEAN_ANOMALY": 318.8782, "EPHEMERIS_TYPE": 0, "CLASSIFICATION_TYPE": "U", "NORAD_CAT_ID": 43689, "ELEMENT_SET_NO": 999, "REV_AT_EPOCH": 36811, "BSTAR": 0.00011219, "MEAN_MOTION_DOT": 2.02e-06, "MEAN_MOTION_DDOT": 0}, "tle": {"line1": "1 43689U 18087A   25345.13237392  .00000202  00000+0  11219-3 0  9993", "line2": "2 43689  98.6931  42.9268 0001295  41.2493 318.8782 14.21483137368119"}}, "geometry": {"type": "Point", "coordinates": [-132.91505262033937, 24.07845081016194]}}, {"type": "Feature", "properties": {"norad_id": 43823, "name": "GEO-KOMPSAT-2A", "group": "weather", "lat": -0.01987640432867665, "lon": -16.80382490857822, "alt_km": 35787.078681138635, "timestamp": "2025-12-11T08:58:26.757161+00:00", "meta": {"OBJECT_NAME": "GEO-KOMPSAT-2A", "OBJECT_ID": "2018-100A", "EPOCH": "2025-12-10T22:42:45.873792", "MEAN_MOTION": 1.00269356, "ECCENTRICITY": 6.2e-06, "INCLINATION": 0.0425, "RA_OF_ASC_NODE": 144.1976, "ARG_OF_PERICENTER": 1.8887, "MEAN_ANOMALY": 42.7761, "EPHEMERIS_TYPE": 0, "CLASSIFICATION_TYPE": "U", "NORAD_CAT_ID": 43823, "ELEMENT_SET_NO": 999, "REV_AT_EPOCH": 2574, "BSTAR": 0, "MEAN_MOTION_DOT": -3.39e-06, "MEAN_MOTION_DDOT": 0}, "tle": {"line1": "1 43823U 18100A   25344.94636428 -.00000339  00000+0  00000+0 0  9994", "line2": "2 43823   0.0425 144.1976 0000062   1.8887  42.7761  1.00269356 25742"}}, "geometry": {"type": "Point", "coordinates": [-16.80382490857822, -0.01987640432867665]}}, {"type": "Feature", "properties": {"norad_id": 44387, "name": "METEOR-M2 2", "group": "weather", "lat": -35.388526005556784, "lon": 138.69682532747927, "alt_km": 816.7472000198186, "timestamp": "2025-12-11T08:58:26.757172+00:00", "meta": {"OBJECT_NAME": "METEOR-M2 2", "OBJECT_ID": "2019-038A", "EPOCH": "2025-12-11T04:35:31.751808", "MEAN_MOTION": 14.24290766, "ECCENTRICITY": 0.0001197, "INCLINATION": 98.8974, "RA_OF_ASC_NODE": 324.901, "ARG_OF_PERICENTER": 150.5142, "MEAN_ANOMALY": 209.6104, "EPHEMERIS_TYPE": 0, "CLASSIFICATION_TYPE": "U", "NORAD_CAT_ID": 44387, "ELEMENT_SET_NO": 999, "REV_AT_EPOCH": 33453, "BSTAR": 0.00016369, "MEAN_MOTION_DOT": 3.32e-06, "MEAN_MOTION_DDOT": 0}, "tle": {"line1": "1 44387U 19038A   25345.19133972  .00000332  00000+0  16369-3 0  9996", "line2": "2 44387  98.8974 324.9010 0001197 150.5142 209.6104 14.24290766334539"}}, "geometry": {"type": "Point", "coordinates": [138.69682532747927, -35.388526005556784]}}, {"type": "Feature", "properties": {"norad_id": 47719, "name": "ARKTIKA-M 1", "group": "weather", "lat": 61.31898147527111, "lon": -163.28878367156565, "alt_km": 37046.595611593286, "timestamp": "2025-12-11T08:58:26.757191+00:00", "meta": {"OBJECT_NAME": "ARKTIKA-M 1", "OBJECT_ID": "2021-016A", "EPOCH": "2025-12-09T14:03:23.859648", "MEAN_MOTION": 2.00631311, "ECCENTRICITY": 0.7202538, "INCLINATION": 63.1769, "RA_OF_ASC_NODE": 84.4506, "ARG_OF_PERICENTER": 269.1116, "MEAN_ANOMALY": 15.6235, "EPHEMERIS_TYPE": 0, "CLASSIFICATION_TYPE": "U", "NORAD_CAT_ID": 47719, "ELEMENT_SET_NO": 999, "REV_AT_EPOCH": 3498, "BSTAR": 0, "MEAN_MOTION_DOT": -6.1e-07, "MEAN_MOTION_DDOT": 0}, "tle": {"line1": "1 47719U 21016A   25343.58569282 -.00000061  00000+0  00000+0 0  9996", "line2": "2 47719  63.1769  84.4506 7202538 269.1116  15.6235  2.00631311 34985"}}, "geometry": {"type": "Point", "coordinates": [-163.28878367156565, 61.31898147527111]}}, {"type": "Feature", "properties": {"norad_id": 49008, "name": "FENGYUN 3E", "group": "weather", "lat": -16.648610968729812, "lon": 163.2719757992748, "alt_km": 830.4956132192083, "timestamp": "2025-12-11T08:58:26.757204+00:00", "meta": {"OBJECT_NAME": "FENGYUN 3E", "OBJECT_ID": "2021-062A", "EPOCH": "2025-12-11T04:40:04.387008", "MEAN_MOTION": 14.19880279, "ECCENTRICITY": 5.75e-05, "INCLINATION": 98.7477, "RA_OF_ASC_NODE": 345.7337, "ARG_OF_PERICENTER": 277.801, "MEAN_ANOMALY": 82.3101, "EPHEMERIS_TYPE": 0, "CLASSIFICATION_TYPE": "U", "NORAD_CAT_ID": 49008, "ELEMENT_SET_NO": 999, "REV_AT_EPOCH": 22990, "BSTAR": 0.00013314, "MEAN_MOTION_DOT": 2.39e-06, "MEAN_MOTION_DDOT": 0}, "tle": {"line1": "1 49008U 21062A   25345.19449522  .00000239  00000+0  13314-3 0  9995", "line2": "2 49008  98.7477 345.7337 0000575 277.8010  82.3101 14.19880279229905"}}, "geometry": {"type": "Point", "coordinates": [163.2719757992748, -16.648610968729812]}}, {"type": "Feature", "properties": {"norad_id": 51850, "name": "GOES 18", "group": "weather", "lat": 0.0009539006338906496, "lon": 77.94800877029175, "alt_km": 35787.927181217994, "timestamp": "2025-12-11T08:58:26.757215+00:00", "meta": {"OBJECT_NAME": "GOES 18", "OBJECT_ID": "2022-021A", "EPOCH": "2025-12-11T04:43:38.646048", "MEAN_MOTION": 1.00271937, "ECCENTRICITY": 7e-05, "INCLINATION": 0.0195, "RA_OF_ASC_NODE": 157.0095, "ARG_OF_PERICENTER": 150.9748, "MEAN_ANOMALY": 66.0866, "EPHEMERIS_TYPE": 0, "CLASSIFICATION_TYPE": "U", "NORAD_CAT_ID": 51850, "ELEMENT_SET_NO": 999, "REV_AT_EPOCH": 470, "BSTAR": 0, "MEAN_MOTION_DOT": 1.03e-06, "MEAN_MOTION_DDOT": 0}, "tle": {"line1": "1 51850U 22021A   25345.19697507  .00000103  00000+0  00000+0 0  9991", "line2": "2 51850   0.0195 157.0095 0000700 150.9748  66.0866  1.00271937  4707"}}, "geometry": {"type": "Point", "coordinates": [77.94800877029175, 0.0009539006338906496]}}]}